[
    {
        "OBJECT_NAME": "COSMOS 1651 [GLONASS]",
        "OBJECT_ID": "1985-037B",
        "EPOCH": "2025-05-02T09:46:21.356832",
        "MEAN_MOTION": 2.13123027,
        "ECCENTRICITY": 0.0014834,
        "INCLINATION": 64.6488,
        "RA_OF_ASC_NODE": 86.9367,
        "ARG_OF_PERICENTER": 22.1266,
        "MEAN_ANOMALY": 72.3348,
        "EPHEMERIS_TYPE": 0,
        "CLASSIFICATION_TYPE": "U",
        "NORAD_CAT_ID": 15698,
        "ELEMENT_SET_NO": 999,
        "REV_AT_EPOCH": 31103,
        "BSTAR": 0,
        "MEAN_MOTION_DOT": 2.2e-07,
        "MEAN_MOTION_DDOT": 0
    },
    {
        "OBJECT_NAME": "COSMOS 1652 [GLONASS]",
        "OBJECT_ID": "1985-037C",
        "EPOCH": "2025-05-02T12:59:26.932416",
        "MEAN_MOTION": 2.13067304,
        "ECCENTRICITY": 0.0018184,
        "INCLINATION": 64.6435,
        "RA_OF_ASC_NODE": 87.2173,
        "ARG_OF_PERICENTER": 24.5032,
        "MEAN_ANOMALY": 77.5199,
        "EPHEMERIS_TYPE": 0,
        "CLASSIFICATION_TYPE": "U",
        "NORAD_CAT_ID": 15699,
        "ELEMENT_SET_NO": 999,
        "REV_AT_EPOCH": 31091,
        "BSTAR": 0,
        "MEAN_MOTION_DOT": 2.3e-07,
        "MEAN_MOTION_DDOT": 0
    },
    {
        "OBJECT_NAME": "COSMOS 1710 [GLONASS]",
        "OBJECT_ID": "1985-118A",
        "EPOCH": "2025-04-29T11:17:38.541408",
        "MEAN_MOTION": 2.13102924,
        "ECCENTRICITY": 0.0012047,
        "INCLINATION": 66.2268,
        "RA_OF_ASC_NODE": 337.9162,
        "ARG_OF_PERICENTER": 204.3062,
        "MEAN_ANOMALY": 158.1371,
        "EPHEMERIS_TYPE": 0,
        "CLASSIFICATION_TYPE": "U",
        "NORAD_CAT_ID": 16396,
        "ELEMENT_SET_NO": 999,
        "REV_AT_EPOCH": 30631,
        "BSTAR": 0,
        "MEAN_MOTION_DOT": -5.3e-07,
        "MEAN_MOTION_DDOT": 0
    },
    {
        "OBJECT_NAME": "COSMOS 1711 [GLONASS]",
        "OBJECT_ID": "1985-118B",
        "EPOCH": "2025-05-02T13:09:44.273376",
        "MEAN_MOTION": 2.13101531,
        "ECCENTRICITY": 0.0008325,
        "INCLINATION": 66.2412,
        "RA_OF_ASC_NODE": 338.0167,
        "ARG_OF_PERICENTER": 189.1437,
        "MEAN_ANOMALY": 348.0764,
        "EPHEMERIS_TYPE": 0,
        "CLASSIFICATION_TYPE": "U",
        "NORAD_CAT_ID": 16397,
        "ELEMENT_SET_NO": 999,
        "REV_AT_EPOCH": 30600,
        "BSTAR": 0,
        "MEAN_MOTION_DOT": -6.2e-07,
        "MEAN_MOTION_DDOT": 0
    },
    {
        "OBJECT_NAME": "COSMOS 1712 [GLONASS]",
        "OBJECT_ID": "1985-118C",
        "EPOCH": "2025-05-02T04:43:09.638976",
        "MEAN_MOTION": 2.12919847,
        "ECCENTRICITY": 0.0010977,
        "INCLINATION": 66.2348,
        "RA_OF_ASC_NODE": 338.6024,
        "ARG_OF_PERICENTER": 13.5808,
        "MEAN_ANOMALY": 164.2908,
        "EPHEMERIS_TYPE": 0,
        "CLASSIFICATION_TYPE": "U",
        "NORAD_CAT_ID": 16398,
        "ELEMENT_SET_NO": 999,
        "REV_AT_EPOCH": 30529,
        "BSTAR": 0,
        "MEAN_MOTION_DOT": -6.3e-07,
        "MEAN_MOTION_DDOT": 0
    },
    {
        "OBJECT_NAME": "COSMOS 1778 [GLONASS]",
        "OBJECT_ID": "1986-071A",
        "EPOCH": "2025-05-03T00:16:09.668064",
        "MEAN_MOTION": 2.13102135,
        "ECCENTRICITY": 0.0004758,
        "INCLINATION": 64.6636,
        "RA_OF_ASC_NODE": 86.4088,
        "ARG_OF_PERICENTER": 235.8656,
        "MEAN_ANOMALY": 309.3007,
        "EPHEMERIS_TYPE": 0,
        "CLASSIFICATION_TYPE": "U",
        "NORAD_CAT_ID": 16961,
        "ELEMENT_SET_NO": 999,
        "REV_AT_EPOCH": 30063,
        "BSTAR": 0,
        "MEAN_MOTION_DOT": 2.4e-07,
        "MEAN_MOTION_DDOT": 0
    },
    {
        "OBJECT_NAME": "COSMOS 1779 [GLONASS]",
        "OBJECT_ID": "1986-071B",
        "EPOCH": "2025-05-02T22:36:38.921760",
        "MEAN_MOTION": 2.13102825,
        "ECCENTRICITY": 0.0012742,
        "INCLINATION": 64.6667,
        "RA_OF_ASC_NODE": 86.4832,
        "ARG_OF_PERICENTER": 38.1532,
        "MEAN_ANOMALY": 144.5175,
        "EPHEMERIS_TYPE": 0,
        "CLASSIFICATION_TYPE": "U",
        "NORAD_CAT_ID": 16962,
        "ELEMENT_SET_NO": 999,
        "REV_AT_EPOCH": 30050,
        "BSTAR": 0,
        "MEAN_MOTION_DOT": 2.4e-07,
        "MEAN_MOTION_DDOT": 0
    },
    {
        "OBJECT_NAME": "COSMOS 1780 [GLONASS]",
        "OBJECT_ID": "1986-071C",
        "EPOCH": "2025-05-03T06:09:42.295392",
        "MEAN_MOTION": 2.13107715,
        "ECCENTRICITY": 0.0003829,
        "INCLINATION": 64.6561,
        "RA_OF_ASC_NODE": 86.1839,
        "ARG_OF_PERICENTER": 331.9988,
        "MEAN_ANOMALY": 107.6141,
        "EPHEMERIS_TYPE": 0,
        "CLASSIFICATION_TYPE": "U",
        "NORAD_CAT_ID": 16963,
        "ELEMENT_SET_NO": 999,
        "REV_AT_EPOCH": 30059,
        "BSTAR": 0,
        "MEAN_MOTION_DOT": 2.5e-07,
        "MEAN_MOTION_DDOT": 0
    },
    {
        "OBJECT_NAME": "COSMOS 1883 [GLONASS]",
        "OBJECT_ID": "1987-079A",
        "EPOCH": "2025-04-30T05:11:42.175968",
        "MEAN_MOTION": 2.1310106,
        "ECCENTRICITY": 0.0005144,
        "INCLINATION": 65.8032,
        "RA_OF_ASC_NODE": 332.6015,
        "ARG_OF_PERICENTER": 250.1003,
        "MEAN_ANOMALY": 285.5284,
        "EPHEMERIS_TYPE": 0,
        "CLASSIFICATION_TYPE": "U",
        "NORAD_CAT_ID": 18355,
        "ELEMENT_SET_NO": 999,
        "REV_AT_EPOCH": 29273,
        "BSTAR": 0,
        "MEAN_MOTION_DOT": -5.3e-07,
        "MEAN_MOTION_DDOT": 0
    },
    {
        "OBJECT_NAME": "COSMOS 1884 [GLONASS]",
        "OBJECT_ID": "1987-079B",
        "EPOCH": "2025-05-03T21:07:47.055936",
        "MEAN_MOTION": 2.13102679,
        "ECCENTRICITY": 0.0018936,
        "INCLINATION": 65.8273,
        "RA_OF_ASC_NODE": 332.8149,
        "ARG_OF_PERICENTER": 205.9716,
        "MEAN_ANOMALY": 336.2637,
        "EPHEMERIS_TYPE": 0,
        "CLASSIFICATION_TYPE": "U",
        "NORAD_CAT_ID": 18356,
        "ELEMENT_SET_NO": 999,
        "REV_AT_EPOCH": 29294,
        "BSTAR": 0,
        "MEAN_MOTION_DOT": -5.4e-07,
        "MEAN_MOTION_DDOT": 0
    },
    {
        "OBJECT_NAME": "COSMOS 1885 [GLONASS]",
        "OBJECT_ID": "1987-079C",
        "EPOCH": "2025-05-02T08:50:38.655744",
        "MEAN_MOTION": 2.1310212,
        "ECCENTRICITY": 0.0022196,
        "INCLINATION": 65.8239,
        "RA_OF_ASC_NODE": 332.7971,
        "ARG_OF_PERICENTER": 211.3353,
        "MEAN_ANOMALY": 326.1387,
        "EPHEMERIS_TYPE": 0,
        "CLASSIFICATION_TYPE": "U",
        "NORAD_CAT_ID": 18357,
        "ELEMENT_SET_NO": 999,
        "REV_AT_EPOCH": 27638,
        "BSTAR": 0,
        "MEAN_MOTION_DOT": -5.6e-07,
        "MEAN_MOTION_DDOT": 0
    },
    {
        "OBJECT_NAME": "COSMOS 1946 [GLONASS]",
        "OBJECT_ID": "1988-043A",
        "EPOCH": "2025-05-02T07:24:03.047040",
        "MEAN_MOTION": 2.13103032,
        "ECCENTRICITY": 0.0003807,
        "INCLINATION": 64.7399,
        "RA_OF_ASC_NODE": 87.659,
        "ARG_OF_PERICENTER": 89.4344,
        "MEAN_ANOMALY": 353.1729,
        "EPHEMERIS_TYPE": 0,
        "CLASSIFICATION_TYPE": "U",
        "NORAD_CAT_ID": 19163,
        "ELEMENT_SET_NO": 999,
        "REV_AT_EPOCH": 28684,
        "BSTAR": 0,
        "MEAN_MOTION_DOT": 2.3e-07,
        "MEAN_MOTION_DDOT": 0
    },
    {
        "OBJECT_NAME": "COSMOS 1947 [GLONASS]",
        "OBJECT_ID": "1988-043B",
        "EPOCH": "2025-05-02T08:02:14.418240",
        "MEAN_MOTION": 2.13103942,
        "ECCENTRICITY": 0.0023732,
        "INCLINATION": 64.7364,
        "RA_OF_ASC_NODE": 87.5785,
        "ARG_OF_PERICENTER": 223.5819,
        "MEAN_ANOMALY": 305.5745,
        "EPHEMERIS_TYPE": 0,
        "CLASSIFICATION_TYPE": "U",
        "NORAD_CAT_ID": 19164,
        "ELEMENT_SET_NO": 999,
        "REV_AT_EPOCH": 28254,
        "BSTAR": 0,
        "MEAN_MOTION_DOT": 2.3e-07,
        "MEAN_MOTION_DDOT": 0
    },
    {
        "OBJECT_NAME": "COSMOS 1948 [GLONASS]",
        "OBJECT_ID": "1988-043C",
        "EPOCH": "2025-05-03T21:18:07.951392",
        "MEAN_MOTION": 2.13102942,
        "ECCENTRICITY": 0.0004253,
        "INCLINATION": 64.7282,
        "RA_OF_ASC_NODE": 87.3277,
        "ARG_OF_PERICENTER": 302.9694,
        "MEAN_ANOMALY": 239.0922,
        "EPHEMERIS_TYPE": 0,
        "CLASSIFICATION_TYPE": "U",
        "NORAD_CAT_ID": 19165,
        "ELEMENT_SET_NO": 999,
        "REV_AT_EPOCH": 28762,
        "BSTAR": 0,
        "MEAN_MOTION_DOT": 2.9e-07,
        "MEAN_MOTION_DDOT": 0
    },
    {
        "OBJECT_NAME": "COSMOS 1970 [GLONASS]",
        "OBJECT_ID": "1988-085A",
        "EPOCH": "2025-04-30T02:29:19.061376",
        "MEAN_MOTION": 2.13101948,
        "ECCENTRICITY": 0.0010185,
        "INCLINATION": 65.471,
        "RA_OF_ASC_NODE": 328.5138,
        "ARG_OF_PERICENTER": 44.3273,
        "MEAN_ANOMALY": 127.8051,
        "EPHEMERIS_TYPE": 0,
        "CLASSIFICATION_TYPE": "U",
        "NORAD_CAT_ID": 19501,
        "ELEMENT_SET_NO": 999,
        "REV_AT_EPOCH": 28497,
        "BSTAR": 0,
        "MEAN_MOTION_DOT": -4.9e-07,
        "MEAN_MOTION_DDOT": 0
    },
    {
        "OBJECT_NAME": "COSMOS 1971 [GLONASS]",
        "OBJECT_ID": "1988-085B",
        "EPOCH": "2025-05-03T14:22:10.449984",
        "MEAN_MOTION": 2.13101622,
        "ECCENTRICITY": 0.0022974,
        "INCLINATION": 65.4631,
        "RA_OF_ASC_NODE": 328.3158,
        "ARG_OF_PERICENTER": 15.3017,
        "MEAN_ANOMALY": 164.5325,
        "EPHEMERIS_TYPE": 0,
        "CLASSIFICATION_TYPE": "U",
        "NORAD_CAT_ID": 19502,
        "ELEMENT_SET_NO": 999,
        "REV_AT_EPOCH": 27062,
        "BSTAR": 0,
        "MEAN_MOTION_DOT": -4.9e-07,
        "MEAN_MOTION_DDOT": 0
    }
]